AMC-1 (GE-1)            
1 24315U 96054A   17345.47514400  .00000060  00000-0  00000+0 0  9999
2 24315   1.9394  84.1310 0000778 182.7713 214.5672  1.00235609 77840
